NIMIQ 5                 
1 35873U 09050A   22024.53696991 -.00000244  00000+0  00000+0 0  9997
2 35873   0.0169  79.4518 0002864 243.2319 281.7396  1.00270908 45262
AMAZONAS 2              
1 35942U 09054A   22024.41324358 -.00000270  00000+0  00000+0 0  9999
2 35942   0.0238 166.7874 0000496 132.8298 271.8526  1.00272541 45090
COMSATBW-1              
1 35943U 09054B   22024.22688170  .00000036  00000+0  00000+0 0  9993
2 35943   0.0944  96.1024 0002196 213.7639 318.3308  1.00272143 45212
NSS-12                  
1 36032U 09058A   22024.23938363  .00000083  00000+0  00000+0 0  9992
2 36032   0.0460 277.3548 0002774  38.3422 310.9996  1.00272132 44827
THOR 6                  
1 36033U 09058B   22024.30049339  .00000002  00000+0  00000+0 0  9998
2 36033   0.0155 129.4027 0001776 186.1712 275.3374  1.00271400 44914
INTELSAT 14 (IS-14)     
1 36097U 09064A   22024.32827248 -.00000261  00000+0  00000+0 0  9998
2 36097   0.0164  78.7343 0002442 240.9598 237.1044  1.00271069 44521
EUTELSAT 36B            
1 36101U 09065A   22024.20199253  .00000167  00000+0  00000+0 0  9994
2 36101   0.0651   6.5859 0004818 301.3448 284.1522  1.00270127 44622
INTELSAT 15 (IS-15)     
1 36106U 09067A   22024.53225080 -.00000173  00000+0  00000+0 0  9993
2 36106   0.0168  71.7501 0002258 239.0125  89.8111  1.00271512 25131
WGS F3 (USA 211)        
1 36108U 09068A   22024.59449291  .00000064  00000+0  00000+0 0  9992
2 36108   0.1130  96.2094 0000110 152.3049 269.1898  1.00273173 30528
DIRECTV 12              
1 36131U 09075A   22024.36343635 -.00000091  00000+0  00000+0 0  9997
2 36131   0.0502 234.2254 0000321 135.6489 141.8940  1.00270960 30473
BEIDOU 3                
1 36287U 10001A   22024.59910488 -.00000270  00000+0  00000+0 0  9990
2 36287   1.8365  46.2766 0001465  40.1842  33.5011  1.00269170 44071
RADUGA-1M 2             
1 36358U 10002A   22024.26438479 -.00000171  00000+0  00000+0 0  9999
2 36358   0.0744 255.3245 0002332  32.8555  15.5445  1.00270107 33992
SDO                     
1 36395U 10005A   22023.28631833 -.00000067  00000+0  00000+0 0  9997
2 36395  31.3750 111.5896 0001798 236.9068 134.9192  1.00268511 43962
INTELSAT 16 (IS-16)     
1 36397U 10006A   22024.22599814 -.00000232  00000+0  00000+0 0  9991
2 36397   0.0176  78.3178 0002101 242.0264 168.3356  1.00271891 43561
GOES 15                 
1 36411U 10008A   22024.62656973  .00000068  00000+0  00000+0 0  9990
2 36411   0.0732 266.1089 0001070  94.0660 220.9382  1.00272436 43585
ECHOSTAR 14             
1 36499U 10010A   22024.40292958  .00000013  00000+0  00000+0 0  9994
2 36499   0.0163  67.5279 0002539 237.8366 204.4915  1.00270225 30460
SES-1                   
1 36516U 10016A   22024.59644262 -.00000102  00000+0  00000+0 0  9999
2 36516   0.0095  46.1532 0002540 267.6930 283.7471  1.00271764 42952
ASTRA 3B                
1 36581U 10021A   22024.29493904  .00000149  00000+0  00000+0 0  9999
2 36581   0.0594  63.6095 0004154 227.9769 321.6360  1.00272105 42788
COMSATBW-2              
1 36582U 10021B   22024.55403076  .00000100  00000+0  00000+0 0  9997
2 36582   0.0507  92.9684 0002137 221.5273  21.9490  1.00271239 42861
BADR-5                  
1 36592U 10025A   22024.23747427  .00000157  00000+0  00000+0 0  9990
2 36592   0.0444 111.6123 0000437 171.1101 312.2673  1.00272550 37129
COMS 1                  
1 36744U 10032A   22024.43326737 -.00000333  00000+0  00000+0 0  9993
2 36744   0.7084  96.0263 0000874 224.3518  87.4919  1.00271604 34999
ARABSAT-5A              
1 36745U 10032B   22024.15743781  .00000165  00000+0  00000+0 0  9997
2 36745   0.0503  31.0152 0001968 275.3891 264.2013  1.00269072 42557
ECHOSTAR 15             
1 36792U 10034A   22024.41324383 -.00000269  00000+0  00000+0 0  9999
2 36792   0.0149  65.7080 0001922 215.5323 289.5795  1.00272193 42246
BEIDOU 5                
1 36828U 10036A   22024.28735965 -.00000073  00000+0  00000+0 0  9991
2 36828  54.1891 177.5520 0027206 178.2148 338.6847  1.00288377 42137
NILESAT 201             
1 36830U 10037A   22024.21147045 -.00000046  00000+0  00000+0 0  9994
2 36830   0.0533 216.4360 0003573 110.3245 225.8421  1.00271236 42270
RASCOM-QAF 1R           
1 36831U 10037B   22024.30049339  .00000030  00000+0  00000+0 0  9994
2 36831   0.0336  96.9314 0006760 195.4563 302.2519  1.00271015 42206
AEHF-1 (USA 214)        
1 36868U 10039A   22024.27086226  .00000035  00000+0  00000+0 0  9993
2 36868   4.1734  88.7565 0001630 326.3457 170.0026  1.00268371 37566
CHINASAT 6A (ZX 6A)     
1 37150U 10042A   22024.04320424 -.00000299  00000+0  00000+0 0  9991
2 37150   0.0832 102.8652 0002403 291.4957 218.1625  0.99830087 41803
QZS-1 (MICHIBIKI-1)     
1 37158U 10045A   22023.59658976 -.00000113  00000+0  00000+0 0  9992
2 37158  42.1859 135.3995 0761837 270.5105  74.8831  1.00267268 41617
XM-5                    
1 37185U 10053A   22024.45832306 -.00000011  00000+0  00000+0 0  9995
2 37185   0.0422 159.0223 0000299   8.0400   6.4825  1.00273066 41395
BSAT-3B                 
1 37207U 10056B   22024.50560510 -.00000338  00000+0  00000+0 0  9996
2 37207   0.0742 306.2418 0004626  19.8726  89.5359  1.00271482 36024
BEIDOU 6                
1 37210U 10057A   22024.61558904 -.00000100  00000+0  00000+0 0  9994
2 37210   0.9076  51.1011 0005715 166.3516 288.0719  1.00273246 41197
SKYTERRA 1              
1 37218U 10061A   22024.55404587 -.00000106  00000+0  00000+0 0  9993
2 37218   2.2992  26.9258 0002152 294.2954 260.7620  1.00271353 41105
ZHONGXING-20A           
1 37234U 10064A   22024.60466183 -.00000340  00000+0  00000+0 0  9990
2 37234   2.2891  90.2688 0003128 230.5693 147.1020  1.00275100 40946
HYLAS 1                 
1 37237U 10065A   22024.32529382 -.00000214  00000+0  00000+0 0  9994
2 37237   1.5543  91.7859 0002195 218.6789 209.4441  1.00268943 40897
INTELSAT 17 (IS-17)     
1 37238U 10065B   22024.27549613  .00000011  00000+0  00000+0 0  9992
2 37238   0.0391 228.7711 0002484  87.5924 332.3580  1.00271114 37145
BEIDOU 7                
1 37256U 10068A   22024.47347366 -.00000188  00000+0  00000+0 0  9994
2 37256  50.4678 291.3699 0017767 188.7301 280.4750  1.00295819 40702
EUTELSAT KA-SAT 9A      
1 37258U 10069A   22024.30049339  .00000074  00000+0  00000+0 0  9991
2 37258   0.0570 257.5825 0000256 185.8777 157.2651  1.00271894 27906
HISPASAT 30W-5          
1 37264U 10070A   22024.59398954 -.00000204  00000+0  00000+0 0  9997
2 37264   0.0376 109.5519 0001985 206.9469 351.1808  1.00269484 37098
KOREASAT 6              
1 37265U 10070B   22024.57688220 -.00000350  00000+0  00000+0 0  9996
2 37265   0.0237  78.3230 0001472 230.9596 138.2569  1.00270673 40686
BEIDOU 8                
1 37384U 11013A   22024.44608288 -.00000167  00000+0  00000+0 0  9994
2 37384  60.0892  55.6914 0021190 193.3438 142.0472  1.00293673 39571
INTELSAT NEW DAWN       
1 37392U 11016A   22024.15743781  .00000168  00000+0  00000+0 0  9992
2 37392   0.0194 165.5255 0000808 350.0860  57.2999  1.00273398 37191
YAHSAT 1A               
1 37393U 11016B   22024.24493816  .00000113  00000+0  00000+0 0  9994
2 37393   0.0132  75.7308 0001927 221.6801 326.8038  1.00269616 26304
SBIRS GEO-1 (USA 230)   
1 37481U 11019A   22024.22653449  .00000004  00000+0  00000+0 0  9992
2 37481   1.8306  15.7078 0001963 285.1636 330.3830  1.00272209 39309
TELSTAR 14R             
1 37602U 11021A   22024.41244314 -.00000267  00000+0  00000+0 0  9990
2 37602   0.0228 343.0859 0003137 358.1532 227.9194  1.00270779 39745
GSAT-8                  
1 37605U 11022A   22023.95257837  .00000097  00000+0  00000+0 0  9996
2 37605   0.0460 263.2894 0007831  13.6679 244.2724  1.00271893 37127
ST-2                    
1 37606U 11022B   22024.52877895 -.00000199  00000+0  00000+0 0  9997
2 37606   0.0194  99.7012 0002267 234.1119  68.3707  1.00270773 39183
CHINASAT 10 (ZX 10)     
1 37677U 11026A   22024.58243914 -.00000340  00000+0  00000+0 0  9992
2 37677   0.0510 246.2153 0002670 336.2561 221.6003  1.00271649 38894
TIANLIAN 1-02           
1 37737U 11032A   22024.62244741 -.00000040  00000+0  00000+0 0  9997
2 37737   2.8254  75.0303 0074955 357.1912  82.7315  1.00273740 38636
GSAT-12                 
1 37746U 11034A   22024.47391708  .00000136  00000+0  00000+0 0  9993
2 37746   1.0164  94.2587 0007148 346.2342 261.7984  1.00273971 27400
SES-3                   
1 37748U 11035A   22024.59528649 -.00000089  00000+0  00000+0 0  9993
2 37748   0.0403 300.8782 0003059  19.7275 274.5668  1.00271535 38513
KAZSAT-2                
1 37749U 11035B   22024.53225080 -.00000186  00000+0  00000+0 0  9999
2 37749   0.0486 243.7796 0000967 137.3356  20.8288  1.00272046 37299
BEIDOU 9                
1 37763U 11038A   22024.58741387 -.00000022  00000+0  00000+0 0  9995
2 37763  54.4740 180.0235 0087484 225.2136  25.0399  1.00264376 38551
ASTRA 1N                
1 37775U 11041A   22024.29493904  .00000131  00000+0  00000+0 0  9999
2 37775   0.0424  12.2646 0003572 344.7693 251.9172  1.00269292 28430
BSAT-3C (JCSAT-110R)    
1 37776U 11041B   22024.50560510 -.00000339  00000+0  00000+0 0  9993
2 37776   0.0089  33.3750 0000380  35.4812 346.9148  1.00272244 34389
PAKSAT-1R               
1 37779U 11042A   22024.29493904  .00000166  00000+0  00000+0 0  9992
2 37779   0.0886 263.5963 0002230  98.2888 265.9699  1.00271436 38383
CHINASAT 1A (ZX 1A)     
1 37804U 11047A   22024.50701286 -.00000326  00000+0  00000+0 0  9994
2 37804   0.0332 136.0322 0001679 178.7470 121.3436  1.00267928 11261
SES-2                   
1 37809U 11049A   22024.03171437 -.00000183  00000+0  00000+0 0  9999
2 37809   0.0410 274.7649 0003088  38.3385  94.6296  1.00271748 37862
ARABSAT-5C              
1 37810U 11049B   22024.29493904  .00000135  00000+0  00000+0 0  9991
2 37810   0.0572 349.6167 0003619 238.8306  21.2995  1.00272648 37963
